start=new Date('2022-11-28T00:00:00.000Z').valueOf();
sats=[{"OBJECT_ID":"2021-017BL","EPHEMERIS_TYPE":"0","CLASSIFICATION_TYPE":"U","ELEMENT_SET_NO":"999","MEAN_ANOMALY":"307.1825","OBJECT_NAME":"STARLINK-2213","REF_FRAME":"TEME","RCS_SIZE":"LARGE","ARG_OF_PERICENTER":"52.9363","BSTAR":"0.00011457000000","TLE_LINE2":"2 47780  53.0542 188.7572 0002182  52.9363 307.1825 15.06409546 97244","MEAN_MOTION_DOT":"0.00001426","INCLINATION":"53.0542","LAUNCH_DATE":"2021-03-04","MEAN_MOTION":"15.06409546","ECCENTRICITY":"0.00021820","PERIAPSIS":"545.673","DECAY_DATE":null,"SITE":"AFETR","MEAN_MOTION_DDOT":"0.0000000000000","SEMIMAJOR_AXIS":"6925.319","NORAD_CAT_ID":"47780","TLE_LINE1":"1 47780U 21017BL  22331.88848661  .00001426  00000-0  11457-3 0  9991","PERIOD":"95.592","FILE":"3671921","EPOCH":"2022-11-27T21:19:25.243104","TIME_SYSTEM":"UTC","APOAPSIS":"548.695","MEAN_ELEMENT_THEORY":"SGP4","REV_AT_EPOCH":"9724","OBJECT_TYPE":"PAYLOAD","CENTER_NAME":"EARTH","COUNTRY_CODE":"US","GP_ID":"218989363","RA_OF_ASC_NODE":"188.7572"},{"FILE":"3671921","PERIOD":"95.592","SEMIMAJOR_AXIS":"6925.362","DECAY_DATE":null,"SITE":"AFETR","MEAN_MOTION_DDOT":"0.0000000000000","TLE_LINE1":"1 47781U 21017BM  22331.65626170 -.00002029  00000-0 -11736-3 0  9998","NORAD_CAT_ID":"47781","RA_OF_ASC_NODE":"189.7970","GP_ID":"218990614","COUNTRY_CODE":"US","REV_AT_EPOCH":"9716","MEAN_ELEMENT_THEORY":"SGP4","APOAPSIS":"548.328","EPOCH":"2022-11-27T15:45:01.010880","TIME_SYSTEM":"UTC","CENTER_NAME":"EARTH","OBJECT_TYPE":"PAYLOAD","REF_FRAME":"TEME","OBJECT_NAME":"STARLINK-2223","ARG_OF_PERICENTER":"65.5869","RCS_SIZE":"LARGE","ELEMENT_SET_NO":"999","EPHEMERIS_TYPE":"0","CLASSIFICATION_TYPE":"U","OBJECT_ID":"2021-017BM","MEAN_ANOMALY":"294.5286","PERIAPSIS":"546.125","MEAN_MOTION_DOT":"-0.00002029","TLE_LINE2":"2 47781  53.0547 189.7970 0001590  65.5869 294.5286 15.06395755 97163","BSTAR":"-0.00011736000000","ECCENTRICITY":"0.00015900","MEAN_MOTION":"15.06395755","LAUNCH_DATE":"2021-03-04","INCLINATION":"53.0547"},{"OBJECT_NAME":"STARLINK-2257","REF_FRAME":"TEME","RCS_SIZE":"LARGE","ARG_OF_PERICENTER":"71.1500","OBJECT_ID":"2021-018A","EPHEMERIS_TYPE":"0","CLASSIFICATION_TYPE":"U","ELEMENT_SET_NO":"999","MEAN_ANOMALY":"288.9661","PERIAPSIS":"546.103","BSTAR":"0.00007728800000","TLE_LINE2":"2 47787  53.0555 232.1006 0001587  71.1500 288.9661 15.06403601 95940","MEAN_MOTION_DOT":"0.00000870","INCLINATION":"53.0555","LAUNCH_DATE":"2021-03-11","MEAN_MOTION":"15.06403601","ECCENTRICITY":"0.00015870","PERIOD":"95.592","FILE":"3671616","DECAY_DATE":null,"SITE":"AFETR","MEAN_MOTION_DDOT":"0.0000000000000","SEMIMAJOR_AXIS":"6925.338","NORAD_CAT_ID":"47787","TLE_LINE1":"1 47787U 21018A   22331.14390931  .00000870  00000-0  77288-4 0  9997","GP_ID":"218956362","COUNTRY_CODE":"US","RA_OF_ASC_NODE":"232.1006","TIME_SYSTEM":"UTC","EPOCH":"2022-11-27T03:27:13.764384","MEAN_ELEMENT_THEORY":"SGP4","APOAPSIS":"548.302","REV_AT_EPOCH":"9594","OBJECT_TYPE":"PAYLOAD","CENTER_NAME":"EARTH"},{"MEAN_MOTION":"15.06393198","ECCENTRICITY":"0.00021160","INCLINATION":"53.0550","LAUNCH_DATE":"2021-03-11","MEAN_MOTION_DOT":"-0.00001668","TLE_LINE2":"2 47788  53.0550 204.6761 0002116  49.4646 310.6527 15.06393198 96399","BSTAR":"-0.00009310800000","PERIAPSIS":"545.769","MEAN_ANOMALY":"310.6527","ELEMENT_SET_NO":"999","OBJECT_ID":"2021-018B","EPHEMERIS_TYPE":"0","CLASSIFICATION_TYPE":"U","RCS_SIZE":"LARGE","ARG_OF_PERICENTER":"49.4646","REF_FRAME":"TEME","OBJECT_NAME":"STARLINK-2314","OBJECT_TYPE":"PAYLOAD","CENTER_NAME":"EARTH","APOAPSIS":"548.700","MEAN_ELEMENT_THEORY":"SGP4","REV_AT_EPOCH":"9639","TIME_SYSTEM":"UTC","EPOCH":"2022-11-27T16:28:09.127200","RA_OF_ASC_NODE":"204.6761","GP_ID":"218989113","COUNTRY_CODE":"US","TLE_LINE1":"1 47788U 21018B   22331.68621675 -.00001668  00000-0 -93108-4 0  9996","NORAD_CAT_ID":"47788","SEMIMAJOR_AXIS":"6925.369","SITE":"AFETR","DECAY_DATE":null,"MEAN_MOTION_DDOT":"0.0000000000000","FILE":"3671921","PERIOD":"95.593"},{"COUNTRY_CODE":"US","GP_ID":"218967089","RA_OF_ASC_NODE":"208.5583","OBJECT_TYPE":"PAYLOAD","CENTER_NAME":"EARTH","EPOCH":"2022-11-27T22:25:45.738624","TIME_SYSTEM":"UTC","MEAN_ELEMENT_THEORY":"SGP4","APOAPSIS":"548.291","REV_AT_EPOCH":"9600","FILE":"3671866","PERIOD":"95.593","NORAD_CAT_ID":"47789","TLE_LINE1":"1 47789U 21018C   22331.93455716 -.00000521  00000-0 -16070-4 0  9996","SITE":"AFETR","DECAY_DATE":null,"MEAN_MOTION_DDOT":"0.0000000000000","SEMIMAJOR_AXIS":"6925.381","PERIAPSIS":"546.201","INCLINATION":"53.0544","LAUNCH_DATE":"2021-03-11","MEAN_MOTION":"15.06389554","ECCENTRICITY":"0.00015090","BSTAR":"-0.00001607000000","TLE_LINE2":"2 47789  53.0544 208.5583 0001509  64.7201 295.3944 15.06389554 96001","MEAN_MOTION_DOT":"-0.00000521","RCS_SIZE":"LARGE","ARG_OF_PERICENTER":"64.7201","OBJECT_NAME":"STARLINK-2315","REF_FRAME":"TEME","MEAN_ANOMALY":"295.3944","OBJECT_ID":"2021-018C","EPHEMERIS_TYPE":"0","CLASSIFICATION_TYPE":"U","ELEMENT_SET_NO":"999"},{"LAUNCH_DATE":"2021-03-11","INCLINATION":"53.0540","ECCENTRICITY":"0.00018950","MEAN_MOTION":"15.06395153","BSTAR":"-0.00000839890000","TLE_LINE2":"2 47790  53.0540 198.6664 0001895  57.2918 302.8254 15.06395153 96491","MEAN_MOTION_DOT":"-0.00000407","PERIAPSIS":"545.916","MEAN_ANOMALY":"302.8254","EPHEMERIS_TYPE":"0","CLASSIFICATION_TYPE":"U","OBJECT_ID":"2021-018D","ELEMENT_SET_NO":"999","ARG_OF_PERICENTER":"57.2918","RCS_SIZE":"LARGE","OBJECT_NAME":"STARLINK-2319","REF_FRAME":"TEME","CENTER_NAME":"EARTH","OBJECT_TYPE":"PAYLOAD","TIME_SYSTEM":"UTC","EPOCH":"2022-11-27T21:49:55.705728","REV_AT_EPOCH":"9649","APOAPSIS":"548.541","MEAN_ELEMENT_THEORY":"SGP4","GP_ID":"218990115","COUNTRY_CODE":"US","RA_OF_ASC_NODE":"198.6664","NORAD_CAT_ID":"47790","TLE_LINE1":"1 47790U 21018D   22331.90967252 -.00000407  00000-0 -83989-5 0  9995","DECAY_DATE":null,"SITE":"AFETR","MEAN_MOTION_DDOT":"0.0000000000000","SEMIMAJOR_AXIS":"6925.363","PERIOD":"95.592","FILE":"3671921"},{"PERIAPSIS":"546.044","ECCENTRICITY":"0.00017310","MEAN_MOTION":"15.06390606","LAUNCH_DATE":"2021-03-11","INCLINATION":"53.0550","TLE_LINE2":"2 47791  53.0550 229.1599 0001731  61.2572 298.8591 15.06390606 96058","MEAN_MOTION_DOT":"-0.00000362","BSTAR":"-0.00000539230000","ARG_OF_PERICENTER":"61.2572","RCS_SIZE":"LARGE","REF_FRAME":"TEME","OBJECT_NAME":"STARLINK-2322","MEAN_ANOMALY":"298.8591","ELEMENT_SET_NO":"999","EPHEMERIS_TYPE":"0","CLASSIFICATION_TYPE":"U","OBJECT_ID":"2021-018E","RA_OF_ASC_NODE":"229.1599","COUNTRY_CODE":"US","GP_ID":"218990365","CENTER_NAME":"EARTH","OBJECT_TYPE":"PAYLOAD","REV_AT_EPOCH":"9605","MEAN_ELEMENT_THEORY":"SGP4","APOAPSIS":"548.441","TIME_SYSTEM":"UTC","EPOCH":"2022-11-27T19:06:43.139232","PERIOD":"95.593","FILE":"3671921","TLE_LINE1":"1 47791U 21018E   22331.79633263 -.00000362  00000-0 -53923-5 0  9990","NORAD_CAT_ID":"47791","SEMIMAJOR_AXIS":"6925.377","DECAY_DATE":null,"SITE":"AFETR","MEAN_MOTION_DDOT":"0.0000000000000"},{"ELEMENT_SET_NO":"999","EPHEMERIS_TYPE":"0","CLASSIFICATION_TYPE":"U","OBJECT_ID":"2021-018F","MEAN_ANOMALY":"312.3664","REF_FRAME":"TEME","OBJECT_NAME":"STARLINK-2334","ARG_OF_PERICENTER":"47.7508","RCS_SIZE":"LARGE","TLE_LINE2":"2 47792  53.0531 210.9109 0002159  47.7508 312.3664 15.06401235 96274","MEAN_MOTION_DOT":"-0.00000124","BSTAR":"0.00001060400000","ECCENTRICITY":"0.00021590","MEAN_MOTION":"15.06401235","LAUNCH_DATE":"2021-03-11","INCLINATION":"53.0531","PERIAPSIS":"545.715","SEMIMAJOR_AXIS":"6925.345","MEAN_MOTION_DDOT":"0.0000000000000","DECAY_DATE":null,"SITE":"AFETR","TLE_LINE1":"1 47792U 21018F   22331.41114496 -.00000124  00000-0  10604-4 0  9995","NORAD_CAT_ID":"47792","FILE":"3671616","PERIOD":"95.592","REV_AT_EPOCH":"9627","APOAPSIS":"548.705","MEAN_ELEMENT_THEORY":"SGP4","TIME_SYSTEM":"UTC","EPOCH":"2022-11-27T09:52:02.924544","CENTER_NAME":"EARTH","OBJECT_TYPE":"PAYLOAD","RA_OF_ASC_NODE":"210.9109","COUNTRY_CODE":"US","GP_ID":"218957114"},{"PERIAPSIS":"545.936","INCLINATION":"53.0537","LAUNCH_DATE":"2021-03-11","MEAN_MOTION":"15.06395772","ECCENTRICITY":"0.00018630","BSTAR":"-0.00005156400000","MEAN_MOTION_DOT":"-0.00001050","TLE_LINE2":"2 47793  53.0537 209.6521 0001863  57.0803 303.0365 15.06395772 96304","RCS_SIZE":"LARGE","ARG_OF_PERICENTER":"57.0803","OBJECT_NAME":"STARLINK-2338","REF_FRAME":"TEME","MEAN_ANOMALY":"303.0365","OBJECT_ID":"2021-018G","EPHEMERIS_TYPE":"0","CLASSIFICATION_TYPE":"U","ELEMENT_SET_NO":"999","GP_ID":"218989364","COUNTRY_CODE":"US","RA_OF_ASC_NODE":"209.6521","OBJECT_TYPE":"PAYLOAD","CENTER_NAME":"EARTH","EPOCH":"2022-11-27T16:35:26.474496","TIME_SYSTEM":"UTC","MEAN_ELEMENT_THEORY":"SGP4","APOAPSIS":"548.517","REV_AT_EPOCH":"9630","PERIOD":"95.592","FILE":"3671921","NORAD_CAT_ID":"47793","TLE_LINE1":"1 47793U 21018G   22331.69127864 -.00001050  00000-0 -51564-4 0  9999","DECAY_DATE":null,"MEAN_MOTION_DDOT":"0.0000000000000","SITE":"AFETR","SEMIMAJOR_AXIS":"6925.362"},{"BSTAR":"-0.00001207100000","TLE_LINE2":"2 47794  53.0542 209.6369 0001601  63.1891 296.9262 15.06389766 96319","MEAN_MOTION_DOT":"-0.00000461","LAUNCH_DATE":"2021-03-11","INCLINATION":"53.0542","ECCENTRICITY":"0.00016010","MEAN_MOTION":"15.06389766","PERIAPSIS":"546.136","CLASSIFICATION_TYPE":"U","EPHEMERIS_TYPE":"0","OBJECT_ID":"2021-018H","ELEMENT_SET_NO":"999","MEAN_ANOMALY":"296.9262","OBJECT_NAME":"STARLINK-2341","REF_FRAME":"TEME","ARG_OF_PERICENTER":"63.1891","RCS_SIZE":"LARGE","TIME_SYSTEM":"UTC","EPOCH":"2022-11-27T16:40:45.060672","REV_AT_EPOCH":"9631","APOAPSIS":"548.354","MEAN_ELEMENT_THEORY":"SGP4","CENTER_NAME":"EARTH","OBJECT_TYPE":"PAYLOAD","COUNTRY_CODE":"US","GP_ID":"218990615","RA_OF_ASC_NODE":"209.6369","MEAN_MOTION_DDOT":"0.0000000000000","DECAY_DATE":null,"SITE":"AFETR","SEMIMAJOR_AXIS":"6925.380","NORAD_CAT_ID":"47794","TLE_LINE1":"1 47794U 21018H   22331.69496598 -.00000461  00000-0 -12071-4 0  9998","PERIOD":"95.593","FILE":"3671921"}];
